STARLINK-6315           
1 57236U 23094U   26035.18508862  .00000125  00000+0  24348-4 0  9997
2 57236  43.0023 199.9300 0001095 261.6786  98.3932 15.02536347142220
STARLINK-6365           
1 57237U 23094V   26035.51710657  .00000408  00000+0  45237-4 0  9996
2 57237  43.0019 210.2584 0001400 263.6796  96.3887 15.02547047142136
STARLINK-6334           
1 57238U 23094W   26035.50970910  .00001601  00000+0  13353-3 0  9995
2 57238  43.0019 198.0627 0001557 263.1714  96.8951 15.02536750142277
STARLINK-6330           
1 57239U 23094X   26035.17694332 -.00000004  00000+0  14804-4 0  9990
2 57239  43.0024 212.0062 0001258 271.5416  88.5282 15.02537658142086
STARLINK-6351           
1 57240U 23094Y   26035.50082840  .00000997  00000+0  88869-4 0  9996
2 57240  43.0023 197.9917 0001410 277.2488  82.8194 15.02534415142277
STARLINK-6349           
1 57241U 23094Z   26035.44768867  .00001478  00000+0  12452-3 0  9999
2 57241  43.0024 198.4567 0001109 270.8858  89.1858 15.02522539142261
STARLINK-6306           
1 57242U 23094AA  26035.44433936  .00000672  00000+0  64784-4 0  9997
2 57242  43.0018 198.4301 0001231 274.9143  85.1559 15.02535128142261
STARLINK-6346           
1 57243U 23094AB  26035.51304225 -.00000218  00000+0 -10628-5 0  9991
2 57243  43.0032 198.0889 0001637 274.4945  85.5710 15.02548111142270
STARLINK-5610           
1 57244U 23094AC  26035.43659743  .00016914  00000+0  12662-2 0  9996
2 57244  43.0026 198.3705 0001164 230.8411 129.2328 15.02473862142263
STARLINK-5587           
1 57245U 23094AD  26035.50639546  .00001605  00000+0  13389-3 0  9993
2 57245  43.0028 198.0346 0001607 267.6750  92.3908 15.02535174142270
STARLINK-5049           
1 57246U 23094AE  26035.47751994  .00001360  00000+0  11577-3 0  9997
2 57246  43.0024 197.8158 0001286 275.6810  84.3886 15.02528459142278
STARLINK-5039           
1 57247U 23094AF  26035.49973237  .00003480  00000+0  27262-3 0  9999
2 57247  43.0027 197.9856 0000957 237.2318 122.8432 15.02527646142271
STARLINK-5514           
1 57248U 23094AG  26035.49639108  .00000240  00000+0  32814-4 0  9997
2 57248  43.0017 197.9570 0001365 267.6228  92.4458 15.02535290142279
STARLINK-5517           
1 57249U 23094AH  26035.16177103  .00000803  00000+0  74518-4 0  9996
2 57249  43.0025 199.6900 0001331 267.5510  92.5180 15.02538462142223
STARLINK-5488           
1 57250U 23094AJ  26035.48419688 -.00000329  00000+0 -93230-5 0  9998
2 57250  42.9964 197.8640 0001032 196.3830 163.6979 15.02514554142275
STARLINK-5513           
1 57251U 23094AK  26035.49084073 -.00000325  00000+0 -89838-5 0  9991
2 57251  43.0022 197.9194 0001284 268.0265  92.0431 15.02540586142278
STARLINK-5511           
1 57252U 23094AL  26035.47641054  .00000330  00000+0  39459-4 0  9995
2 57252  43.0003 197.8086 0001209 265.8027  94.2677 15.02541548142270
