[{"OBJECT_NAME":"STARLINK-6315","OBJECT_ID":"2023-094U","EPOCH":"2026-02-04T04:26:31.656768","MEAN_MOTION":15.02536347,"ECCENTRICITY":0.0001095,"INCLINATION":43.0023,"RA_OF_ASC_NODE":199.93,"ARG_OF_PERICENTER":261.6786,"MEAN_ANOMALY":98.3932,"EPHEMERIS_TYPE":0,"CLASSIFICATION_TYPE":"U","NORAD_CAT_ID":57236,"ELEMENT_SET_NO":999,"REV_AT_EPOCH":14222,"BSTAR":2.4348e-5,"MEAN_MOTION_DOT":1.25e-6,"MEAN_MOTION_DDOT":0},{"OBJECT_NAME":"STARLINK-6365","OBJECT_ID":"2023-094V","EPOCH":"2026-02-04T12:24:38.007648","MEAN_MOTION":15.02547047,"ECCENTRICITY":0.00014,"INCLINATION":43.0019,"RA_OF_ASC_NODE":210.2584,"ARG_OF_PERICENTER":263.6796,"MEAN_ANOMALY":96.3887,"EPHEMERIS_TYPE":0,"CLASSIFICATION_TYPE":"U","NORAD_CAT_ID":57237,"ELEMENT_SET_NO":999,"REV_AT_EPOCH":14213,"BSTAR":4.5237e-5,"MEAN_MOTION_DOT":4.08e-6,"MEAN_MOTION_DDOT":0},{"OBJECT_NAME":"STARLINK-6334","OBJECT_ID":"2023-094W","EPOCH":"2026-02-04T12:13:58.866240","MEAN_MOTION":15.0253675,"ECCENTRICITY":0.0001557,"INCLINATION":43.0019,"RA_OF_ASC_NODE":198.0627,"ARG_OF_PERICENTER":263.1714,"MEAN_ANOMALY":96.8951,"EPHEMERIS_TYPE":0,"CLASSIFICATION_TYPE":"U","NORAD_CAT_ID":57238,"ELEMENT_SET_NO":999,"REV_AT_EPOCH":14227,"BSTAR":0.00013353,"MEAN_MOTION_DOT":1.601e-5,"MEAN_MOTION_DDOT":0},{"OBJECT_NAME":"STARLINK-6330","OBJECT_ID":"2023-094X","EPOCH":"2026-02-04T04:14:47.902848","MEAN_MOTION":15.02537658,"ECCENTRICITY":0.00012586,"INCLINATION":43.0024,"RA_OF_ASC_NODE":212.0062,"ARG_OF_PERICENTER":271.5416,"MEAN_ANOMALY":88.5282,"EPHEMERIS_TYPE":0,"CLASSIFICATION_TYPE":"U","NORAD_CAT_ID":57239,"ELEMENT_SET_NO":999,"REV_AT_EPOCH":14208,"BSTAR":1.4803779e-5,"MEAN_MOTION_DOT":-4.0e-8,"MEAN_MOTION_DDOT":0},{"OBJECT_NAME":"STARLINK-6351","OBJECT_ID":"2023-094Y","EPOCH":"2026-02-04T12:01:11.573760","MEAN_MOTION":15.02534415,"ECCENTRICITY":0.000141,"INCLINATION":43.0023,"RA_OF_ASC_NODE":197.9917,"ARG_OF_PERICENTER":277.2488,"MEAN_ANOMALY":82.8194,"EPHEMERIS_TYPE":0,"CLASSIFICATION_TYPE":"U","NORAD_CAT_ID":57240,"ELEMENT_SET_NO":999,"REV_AT_EPOCH":14227,"BSTAR":8.8869e-5,"MEAN_MOTION_DOT":9.97e-6,"MEAN_MOTION_DDOT":0},{"OBJECT_NAME":"STARLINK-6349","OBJECT_ID":"2023-094Z","EPOCH":"2026-02-04T10:44:40.301088","MEAN_MOTION":15.02522539,"ECCENTRICITY":0.0001109,"INCLINATION":43.0024,"RA_OF_ASC_NODE":198.4567,"ARG_OF_PERICENTER":270.8858,"MEAN_ANOMALY":89.1858,"EPHEMERIS_TYPE":0,"CLASSIFICATION_TYPE":"U","NORAD_CAT_ID":57241,"ELEMENT_SET_NO":999,"REV_AT_EPOCH":14226,"BSTAR":0.00012452,"MEAN_MOTION_DOT":1.478e-5,"MEAN_MOTION_DDOT":0},{"OBJECT_NAME":"STARLINK-6306","OBJECT_ID":"2023-094AA","EPOCH":"2026-02-04T10:39:50.920704","MEAN_MOTION":15.02535128,"ECCENTRICITY":0.0001231,"INCLINATION":43.0018,"RA_OF_ASC_NODE":198.4301,"ARG_OF_PERICENTER":274.9143,"MEAN_ANOMALY":85.1559,"EPHEMERIS_TYPE":0,"CLASSIFICATION_TYPE":"U","NORAD_CAT_ID":57242,"ELEMENT_SET_NO":999,"REV_AT_EPOCH":14226,"BSTAR":6.4784e-5,"MEAN_MOTION_DOT":6.72e-6,"MEAN_MOTION_DDOT":0},{"OBJECT_NAME":"STARLINK-6346","OBJECT_ID":"2023-094AB","EPOCH":"2026-02-04T12:18:46.850400","MEAN_MOTION":15.02548111,"ECCENTRICITY":0.0001637,"INCLINATION":43.0032,"RA_OF_ASC_NODE":198.0889,"ARG_OF_PERICENTER":274.4945,"MEAN_ANOMALY":85.571,"EPHEMERIS_TYPE":0,"CLASSIFICATION_TYPE":"U","NORAD_CAT_ID":57243,"ELEMENT_SET_NO":999,"REV_AT_EPOCH":14227,"BSTAR":-1.0628e-6,"MEAN_MOTION_DOT":-2.18e-6,"MEAN_MOTION_DDOT":0},{"OBJECT_NAME":"STARLINK-5610","OBJECT_ID":"2023-094AC","EPOCH":"2026-02-04T10:28:42.017952","MEAN_MOTION":15.02473862,"ECCENTRICITY":0.0001164,"INCLINATION":43.0026,"RA_OF_ASC_NODE":198.3705,"ARG_OF_PERICENTER":230.8411,"MEAN_ANOMALY":129.2328,"EPHEMERIS_TYPE":0,"CLASSIFICATION_TYPE":"U","NORAD_CAT_ID":57244,"ELEMENT_SET_NO":999,"REV_AT_EPOCH":14226,"BSTAR":0.0012662,"MEAN_MOTION_DOT":0.00016914,"MEAN_MOTION_DDOT":0},{"OBJECT_NAME":"STARLINK-5587","OBJECT_ID":"2023-094AD","EPOCH":"2026-02-04T12:09:12.567744","MEAN_MOTION":15.02535174,"ECCENTRICITY":0.0001607,"INCLINATION":43.0028,"RA_OF_ASC_NODE":198.0346,"ARG_OF_PERICENTER":267.675,"MEAN_ANOMALY":92.3908,"EPHEMERIS_TYPE":0,"CLASSIFICATION_TYPE":"U","NORAD_CAT_ID":57245,"ELEMENT_SET_NO":999,"REV_AT_EPOCH":14227,"BSTAR":0.00013389,"MEAN_MOTION_DOT":1.605e-5,"MEAN_MOTION_DDOT":0},{"OBJECT_NAME":"STARLINK-5049","OBJECT_ID":"2023-094AE","EPOCH":"2026-02-04T11:27:37.722816","MEAN_MOTION":15.02528459,"ECCENTRICITY":0.0001286,"INCLINATION":43.0024,"RA_OF_ASC_NODE":197.8158,"ARG_OF_PERICENTER":275.681,"MEAN_ANOMALY":84.3886,"EPHEMERIS_TYPE":0,"CLASSIFICATION_TYPE":"U","NORAD_CAT_ID":57246,"ELEMENT_SET_NO":999,"REV_AT_EPOCH":14227,"BSTAR":0.00011577,"MEAN_MOTION_DOT":1.36e-5,"MEAN_MOTION_DDOT":0},{"OBJECT_NAME":"STARLINK-5039","OBJECT_ID":"2023-094AF","EPOCH":"2026-02-04T11:59:36.876768","MEAN_MOTION":15.02527646,"ECCENTRICITY":9.57e-5,"INCLINATION":43.0027,"RA_OF_ASC_NODE":197.9856,"ARG_OF_PERICENTER":237.2318,"MEAN_ANOMALY":122.8432,"EPHEMERIS_TYPE":0,"CLASSIFICATION_TYPE":"U","NORAD_CAT_ID":57247,"ELEMENT_SET_NO":999,"REV_AT_EPOCH":14227,"BSTAR":0.00027262,"MEAN_MOTION_DOT":3.48e-5,"MEAN_MOTION_DDOT":0},{"OBJECT_NAME":"STARLINK-5514","OBJECT_ID":"2023-094AG","EPOCH":"2026-02-04T11:54:48.189312","MEAN_MOTION":15.0253529,"ECCENTRICITY":0.0001365,"INCLINATION":43.0017,"RA_OF_ASC_NODE":197.957,"ARG_OF_PERICENTER":267.6228,"MEAN_ANOMALY":92.4458,"EPHEMERIS_TYPE":0,"CLASSIFICATION_TYPE":"U","NORAD_CAT_ID":57248,"ELEMENT_SET_NO":999,"REV_AT_EPOCH":14227,"BSTAR":3.2814e-5,"MEAN_MOTION_DOT":2.4e-6,"MEAN_MOTION_DDOT":0},{"OBJECT_NAME":"STARLINK-5517","OBJECT_ID":"2023-094AH","EPOCH":"2026-02-04T03:52:57.016992","MEAN_MOTION":15.02538462,"ECCENTRICITY":0.00013311,"INCLINATION":43.0025,"RA_OF_ASC_NODE":199.69,"ARG_OF_PERICENTER":267.551,"MEAN_ANOMALY":92.518,"EPHEMERIS_TYPE":0,"CLASSIFICATION_TYPE":"U","NORAD_CAT_ID":57249,"ELEMENT_SET_NO":999,"REV_AT_EPOCH":14222,"BSTAR":7.4518428e-5,"MEAN_MOTION_DOT":8.03e-6,"MEAN_MOTION_DDOT":0},{"OBJECT_NAME":"STARLINK-5488","OBJECT_ID":"2023-094AJ","EPOCH":"2026-02-04T11:37:14.610432","MEAN_MOTION":15.02514554,"ECCENTRICITY":0.0001032,"INCLINATION":42.9964,"RA_OF_ASC_NODE":197.864,"ARG_OF_PERICENTER":196.383,"MEAN_ANOMALY":163.6979,"EPHEMERIS_TYPE":0,"CLASSIFICATION_TYPE":"U","NORAD_CAT_ID":57250,"ELEMENT_SET_NO":999,"REV_AT_EPOCH":14227,"BSTAR":-9.323e-6,"MEAN_MOTION_DOT":-3.29e-6,"MEAN_MOTION_DDOT":0},{"OBJECT_NAME":"STARLINK-5513","OBJECT_ID":"2023-094AK","EPOCH":"2026-02-04T11:46:48.639072","MEAN_MOTION":15.02540586,"ECCENTRICITY":0.0001284,"INCLINATION":43.0022,"RA_OF_ASC_NODE":197.9194,"ARG_OF_PERICENTER":268.0265,"MEAN_ANOMALY":92.0431,"EPHEMERIS_TYPE":0,"CLASSIFICATION_TYPE":"U","NORAD_CAT_ID":57251,"ELEMENT_SET_NO":999,"REV_AT_EPOCH":14227,"BSTAR":-8.9838e-6,"MEAN_MOTION_DOT":-3.25e-6,"MEAN_MOTION_DDOT":0},{"OBJECT_NAME":"STARLINK-5511","OBJECT_ID":"2023-094AL","EPOCH":"2026-02-04T11:26:01.870656","MEAN_MOTION":15.02541548,"ECCENTRICITY":0.0001209,"INCLINATION":43.0003,"RA_OF_ASC_NODE":197.8086,"ARG_OF_PERICENTER":265.8027,"MEAN_ANOMALY":94.2677,"EPHEMERIS_TYPE":0,"CLASSIFICATION_TYPE":"U","NORAD_CAT_ID":57252,"ELEMENT_SET_NO":999,"REV_AT_EPOCH":14227,"BSTAR":3.9459e-5,"MEAN_MOTION_DOT":3.3e-6,"MEAN_MOTION_DDOT":0}]
